DONGPO 02               
1 53452U 22098J   25026.84306539  .00026542  00000+0  93864-3 0  9994
2 53452  97.5236 132.9433 0005415  22.9046 337.2434 15.29134402136542
DONGPO 01               
1 53453U 22098K   25026.87335474  .00026168  00000+0  93731-3 0  9995
2 53453  97.5303 133.5409 0001651  70.0368 290.1049 15.28731106136549
STARLINK-4400           
1 53468U 22099D   25026.34492842  .00001104  00000+0  90482-4 0  9991
2 53468  97.6551 149.9962 0001675  84.9242 275.2173 15.01268409134864
STARLINK-4621           
1 53676U 22105AE  25026.68781531  .00000737  00000+0  61931-4 0  9991
2 53676  97.6570 270.3327 0002027  90.6422 269.5035 15.01261233132450
SHERPA-LTC2             
1 53754U 22107BG  25026.64846333  .00008478  00000+0  46279-3 0  9995
2 53754  53.2372 193.5215 0422563 256.6656  98.6883 14.61927660128243
CENTISPACE-1 S3         
1 53757U 22108A   25026.75825533  .00001829  00000+0  41499-3 0  9992
2 53757  53.5339 347.9039 0011233  78.2488 281.9747 14.60213705127512
CENTISPACE-1 S4         
1 53758U 22108B   25026.80679756  .00002497  00000+0  54696-3 0  9998
2 53758  53.5313 347.2833 0010643  66.3224 293.8867 14.60665739127524
BLUEWALKER-3            
1 53807U 22111AL  25025.97453938  .00007593  00000+0  25379-3 0  9994
2 53807  53.2330 242.6104 0009038  64.6874 295.5064 15.31987724132313
YUNHAI-1 03             
1 53877U 22115A   25026.82661664  .00000731  00000+0  28200-3 0  9990
2 53877  98.5331  26.9584 0002296 112.3720 247.7707 14.33200871123009
CENTISPACE-1 S5         
1 54020U 22126A   25026.62421288  .00002509  00000+0  54155-3 0  9990
2 54020  54.9989  77.6921 0013522  21.0979 339.0569 14.61292149122931
CENTISPACE-1 S6         
1 54021U 22126B   25026.76841743  .00001934  00000+0  42906-3 0  9990
2 54021  54.9991  77.1931 0015382  21.6924 338.4718 14.60967050122942
OTB-3-GAZELLE           
1 54023U 22127A   25026.58169239  .00000465  00000+0  15356-3 0  9993
2 54023  98.3592  22.1642 0012027 278.4188  81.5639 14.42391082121324
ASO-S                   
1 54029U 22129A   25026.79798098  .00000538  00000+0  14500-3 0  9996
2 54029  98.2721  34.3598 0013760 204.6409 155.4131 14.51714264121947
HJ-2E                   
1 54035U 22132A   25026.82975492  .00021359  00000+0  82387-3 0  9998
2 54035  97.3832  35.7372 0012311 291.1685  68.8237 15.26254206127410
COSMOS 2561             
1 54109U 22137A   25026.72411593  .00013495  00000+0  36838-3 0  9993
2 54109  96.9913 102.3464 0014438  81.6838 278.6044 15.37426336128172
GONETS-M 23             
1 54150U 22139A   25026.77018997  .00000029  00000+0  13734-3 0  9996
2 54150  82.5080 302.9737 0020264 247.0975 112.7966 12.42883544102735
GONETS-M 24             
1 54151U 22139B   25026.82436472  .00000025  00000+0  11211-3 0  9999
2 54151  82.4997 302.3455 0015388 258.4743 101.4609 12.42886066102745
GONETS-M 25             
1 54152U 22139C   25026.81039297  .00000019  00000+0  67551-4 0  9995
2 54152  82.5063 302.7692 0019154 256.4549 103.4397 12.42882049102748
SKIF-D                  
1 54153U 22139D   25023.21762343  .00000002  00000+0  00000+0 0  9995
2 54153  89.9796  96.7857 0007717 343.7669  16.2816  5.00432945 38591
MATS                    
1 54227U 22147A   25026.53013309  .00005822  00000+0  46527-3 0  9998
2 54227  97.6685  27.4575 0018492 100.3699 259.9610 15.00482982121651
JILIN-1 GAOFEN 03D54    
1 54254U 22155D   25026.86681231  .00029023  00000+0  96782-3 0  9995
2 54254  97.5726 145.7758 0008601  29.4422 330.7301 15.31005832121743
EOS-6 (OCEANSAT-3)      
1 54361U 22158A   25026.78389352 -.00000010  00000+0  91050-5 0  9998
2 54361  98.3513 126.8229 0001737  88.0760 272.0631 14.46981075114605
ASTROCAST-0304          
1 54367U 22158G   25026.82649975  .00034752  00000+0  65735-3 0  9997
2 54367  97.4386 139.6369 0007189 356.7599   3.3604 15.48297440121183
ASTROCAST-0302          
1 54369U 22158J   25026.79946959  .00036866  00000+0  69868-3 0  9996
2 54369  97.4418 139.9649 0005683   0.7122 359.4135 15.48240419121199
ASTROCAST-0301          
1 54370U 22158K   25026.78329043  .00037384  00000+0  70763-3 0  9998
2 54370  97.4470 140.1735 0004564  10.2353 349.8989 15.48279182121197
CAS-5A (FO-118)         
1 54684U 22167C   25026.76054035  .00227508  00000+0  16590-2 0  9996
2 54684  97.6101 188.3732 0004242   2.7195 357.4090 15.72598359118823
DONGPO 09               
1 54685U 22167D   25026.88478374  .00016657  00000+0  72786-3 0  9997
2 54685  97.6360 177.4214 0002772 119.8072 240.3440 15.22173749118078
DONGPO 08               
1 54686U 22167E   25026.77735913  .00016105  00000+0  73480-3 0  9991
2 54686  97.6302 176.4420 0010585 135.6775 224.5309 15.20654971118033
2022-167F               
1 54687U 22167F   25026.79662172  .00042097  00000+0  12889-2 0  9994
2 54687  97.6026 177.6640 0005372  88.0715 272.1142 15.33683406118186
DONGPO 10               
1 54689U 22167H   25026.80661295  .00016124  00000+0  72875-3 0  9997
2 54689  97.6390 177.3184 0008591  91.4606 268.7614 15.20998214118047
JILIN-1 GAOFEN 03D48    
1 54695U 22167P   25026.83654182  .00016892  00000+0  75980-3 0  9996
2 54695  97.6322 176.7961 0009775  92.8527 267.3826 15.21142681118058
STAR VIBE               
1 55009U 23001A   25026.75162028  .00014817  00000+0  55540-3 0  9993
2 55009  97.3931  87.6303 0008931 122.7135 237.4967 15.27317065114542
BRO-8                   
1 55011U 23001C   25026.74337567  .00009836  00000+0  40022-3 0  9991
2 55011  97.3999  87.6539 0010501 127.6952 232.5239 15.24666585114502
CONNECTA T1.2           
1 55012U 23001D   25026.09993165  .00014309  00000+0  49541-3 0  9998
2 55012  97.4011  89.5380 0010456 118.6638 241.5655 15.29919152114568
BIRKELAND               
1 55015U 23001G   25026.76544495  .00009919  00000+0  35664-3 0  9995
2 55015  97.4033  90.4423 0009742 114.2041 246.0218 15.28784262114689
ION SCV-008             
1 55051U 23001AU  25026.77373969  .00009583  00000+0  44693-3 0  9991
2 55051  97.5942 112.3145 0017802 352.1813   7.9141 15.19941188114186
ION SCV-007             
1 55060U 23001BD  25026.59392926  .00001342  00000+0  19881-3 0  9991
2 55060  97.9701  92.8482 0012802 165.2238 194.9348 14.76724496111465
TAUSAT-2                
1 55073U 23001BS  25026.13378471  .00154637  00000+0  14186-2 0  9992
2 55073  97.3853  99.4945 0004719  50.2181 309.9494 15.67241644115268
FLOCK 4Y-23             
1 55080U 23001BZ  25026.14685217  .00055186  00000+0  10795-2 0  9991
2 55080  97.3936  95.9840 0010311  79.5348 280.7063 15.47194052115038
HUYGENS                 
1 55093U 23001CN  25026.76556171  .00010850  00000+0  38928-3 0  9997
2 55093  97.3967  90.2239 0013644  94.3081 265.9718 15.28784729114707
BDSAT-2                 
1 55098U 23001CT  25026.72907580  .00522565  00000+0  18543-2 0  9993
2 55098  97.3810 102.5341 0002563 354.3025   5.8217 15.87738293115497
SHARJAHSAT-1            
1 55104U 23001CZ  25026.74876803  .00018324  00000+0  63653-3 0  9992
2 55104  97.3943  88.7232 0009931 121.9480 238.2727 15.29760944114609
2023-003A               
1 55133U 23003A   25026.80733457  .00038380  00000+0  92581-3 0  9996
2 55133  97.1946 100.8362 0004120 117.6445 242.5221 15.41109549113923
HORUS 1                 
1 55690U 23025A   25026.79077433  .00011885  00000+0  50519-3 0  9997
2 55690  97.4000 105.3286 0001193 176.8092 183.3153 15.23190557106952
HORUS 2                 
1 55844U 23032A   25026.75910326  .00012812  00000+0  53761-3 0  9992
2 55844  97.4060 105.6701 0006247  56.2285 303.9546 15.23591873104381
GLOBAL-19               
1 55982U 23041B   25026.83634919  .00027347  00000+0  71866-3 0  9990
2 55982  42.0059 276.1774 0009537 212.5748 147.4504 15.37993146103937
DEWASAT-2               
1 56180U 23054C   25026.75116875  .00163914  00000+0  69632-3 0  9991
2 56180  97.3416 299.5166 0006817  83.8347 276.3700 15.84829508101046
KILICSAT                
1 56181U 23054D   25026.77201874  .01630136  22406-2  13561-2 0  9990
2 56181  97.3241 296.9519 0006764 116.8257 243.3721 16.14415127100929
BRO-9                   
1 56185U 23054H   25026.76255955  .00025224  00000+0  61530-3 0  9990
2 56185  97.3402 287.1930 0008021  89.4941 270.7225 15.40832950100281
ION SCV-010             
1 56192U 23054Q   25026.58235966  .00008507  00000+0  39664-3 0  9996
2 56192  97.4430 277.7770 0016845 170.4505 189.7053 15.19991252 99088
GHOST-1                 
1 56195U 23054T   25026.27133451  .00025926  00000+0  59463-3 0  9994
2 56195  97.3412 287.5646 0009109  83.2729 276.9555 15.42675855100257
GHOST-2                 
1 56197U 23054V   25026.65191548  .00038412  00000+0  73122-3 0  9991
2 56197  97.3406 289.5777 0009145  77.7230 282.5043 15.48075134100428
TOMORROW-R1             
1 56199U 23054X   25026.70319614  .00100023  00000+0  10365-2 0  9992
2 56199  97.3406 293.3669 0007277  67.9963 292.2069 15.64334591100666
FACSAT-2                
1 56205U 23054AD  25026.78080864  .00042078  00000+0  68875-3 0  9995
2 56205  97.3468 292.2388 0009940  68.3795 291.8516 15.52335134100589
CONNECTA T2.1           
1 56210U 23054AJ  25026.79005381  .00043641  00000+0  73986-3 0  9999
2 56210  97.3380 290.7988 0009838  70.3605 289.8708 15.51343325100531
TELEOS-2                
1 56310U 23057C   25026.33981104  .00013235  00000+0  10742-2 0  9995
2 56310   9.9895 294.6575 0001075 259.5743 100.4350 14.96451621 96752
SNIPE 4                 
1 56744U 23072B   25026.77708939  .00018701  00000+0  80955-3 0  9991
2 56744  97.5413 218.7558 0009902 339.9059  20.1786 15.22426195 92586
SNIPE 2                 
1 56745U 23072C   25026.80233321  .00021218  00000+0  90040-3 0  9997
2 56745  97.5584 219.7052 0007074 359.3467   0.7759 15.23097693 92608
2023-072G               
1 56749U 23072G   25026.77108747  .00020859  00000+0  82690-3 0  9992
2 56749  97.5218 218.5972 0007350   4.1442 355.9855 15.25394447 92677
